{"fetched_at":"2026-07-11T06:35:46.123Z","source":"https://celestrak.org/NORAD/elements/gp.php?NAME=SENTINEL&FORMAT=JSON","constellation":"sentinel-2","records":[{"OBJECT_NAME":"SENTINEL-2A","OBJECT_ID":"2015-028A","EPOCH":"2026-07-10T20:25:30.732096","CLASSIFICATION_TYPE":"U","MEAN_MOTION":14.30812903,"ECCENTRICITY":0.0001255,"INCLINATION":98.5678,"RA_OF_ASC_NODE":266.3661,"ARG_OF_PERICENTER":94.2283,"MEAN_ANOMALY":265.9043,"EPHEMERIS_TYPE":0,"NORAD_CAT_ID":40697,"ELEMENT_SET_NO":999,"REV_AT_EPOCH":57711,"BSTAR":-0.00004616,"MEAN_MOTION_DOT":-0.00000165,"MEAN_MOTION_DDOT":0},{"OBJECT_NAME":"SENTINEL-2B","OBJECT_ID":"2017-013A","EPOCH":"2026-07-10T20:15:09.802080","CLASSIFICATION_TYPE":"U","MEAN_MOTION":14.30813322,"ECCENTRICITY":0.0001218,"INCLINATION":98.5685,"RA_OF_ASC_NODE":266.2838,"ARG_OF_PERICENTER":89.7747,"MEAN_ANOMALY":270.3576,"EPHEMERIS_TYPE":0,"NORAD_CAT_ID":42063,"ELEMENT_SET_NO":999,"REV_AT_EPOCH":48802,"BSTAR":-0.000070897,"MEAN_MOTION_DOT":-0.00000229,"MEAN_MOTION_DDOT":0},{"OBJECT_NAME":"SENTINEL-2C","OBJECT_ID":"2024-157A","EPOCH":"2026-07-10T02:37:50.511360","CLASSIFICATION_TYPE":"U","MEAN_MOTION":14.30814768,"ECCENTRICITY":0.00009466,"INCLINATION":98.5685,"RA_OF_ASC_NODE":265.5666,"ARG_OF_PERICENTER":98.1407,"MEAN_ANOMALY":261.9883,"EPHEMERIS_TYPE":0,"NORAD_CAT_ID":60989,"ELEMENT_SET_NO":999,"REV_AT_EPOCH":9626,"BSTAR":0.000032183953,"MEAN_MOTION_DOT":4.1e-7,"MEAN_MOTION_DDOT":0}]}
